#aV2006  4 28  0  0   .00000000      96 DD+AD WGS84 FIT  NGA
## 1372 432000.00000000   900.00000000 53853  .0000000000000
+   29     1  2  3  4  5  6  7  8  9 10 11 13 14 15 16 17 18
+         19 20 21 22 23 24 25 26 27 28 29 30  0  0  0  0  0
+          0  0  0  0  0  0  0  0  0  0  0  0  0  0  0  0  0
+          0  0  0  0  0  0  0  0  0  0  0  0  0  0  0  0  0
+          0  0  0  0  0  0  0  0  0  0  0  0  0  0  0  0  0
++         0  0  0  0  0  0  0  0  0  0  0  0  0  0  0  0  0
++         0  0  0  0  0  0  0  0  0  0  0  0  0  0  0  0  0
++         0  0  0  0  0  0  0  0  0  0  0  0  0  0  0  0  0
++         0  0  0  0  0  0  0  0  0  0  0  0  0  0  0  0  0
++         0  0  0  0  0  0  0  0  0  0  0  0  0  0  0  0  0
%c cc cc ccc ccc cccc cccc cccc cccc ccccc ccccc ccccc ccccc
%c cc cc ccc ccc cccc cccc cccc cccc ccccc ccccc ccccc ccccc
%f  0.0000000  0.000000000  0.00000000000  0.000000000000000
%f  0.0000000  0.000000000  0.00000000000  0.000000000000000
%i    0    0    0    0      0      0      0      0         0
%i    0    0    0    0      0      0      0      0         0
/*      NGA, ST. LOUIS,MO.                                  
/*   EPHEMERIS COMPUTED FROM  3 DAYS OF DATA                
/* CCCCCCCCCCCCCCCCCCCCCCCCCCCCCCCCCCCCCCCCCCCCCCCCCCCCCCCCC
/* CCCCCCCCCCCCCCCCCCCCCCCCCCCCCCCCCCCCCCCCCCCCCCCCCCCCCCCCC
*  2006  4 28 11  0   .00000000                                                 
P  1  10769.139944  14166.802843  19927.163594     49.655323                    
V  1 -24764.422311  -1427.651279  14498.391008       .022320                    
P  2 -12625.351415 -23488.377545   -690.848312     -6.364928                    
V  2   2382.744781  -1851.188861  31383.700026       .024085                    
P  3  16520.536320  12231.435056 -17141.594094     94.205631                    
V  3 -21351.809752   2939.450198 -18352.800974       .030942                    
P  4  -4177.905723 -24196.398212   9626.179577    216.604649                    
V  4   8243.977804   9779.212579  28397.417541       .097340                    
P  5 -17943.149596   4068.084953  18900.831163    -87.537063                    
V  5  10061.789501 -22462.976964  14406.841944       .603663                    
P  6 -23492.742995   7031.435843 -10110.100654    497.214558                    
V  6 -13076.005477  -3455.294057  27381.185133       .204373                    
P  7  -3984.512191  15444.108171 -20918.881073    532.599176                    
V  7 -27424.086842   -326.795690   4766.729735       .034991                    
P  8   3228.594829 -20280.122074 -16757.928097    -63.999472                    
V  8  10470.215958  18452.314035 -20880.487006      -.011460                    
P  9 -18383.948113  -9569.826998  16227.562999     17.970732                    
V  9  -8904.673327 -19682.183980 -20718.888670       .015481                    
P 10  -7840.245305 -14054.892520 -21163.093799     82.523636                    
V 10  15640.086162 -21630.103874   8913.187014       .006529                    
P 11  20178.938906   6044.189070  16246.062668    323.539725                    
V 11   9782.242067  18674.858975 -18770.358764       .025522                    
P 13  22720.350234  -6303.492315 -12248.475550     57.804487                    
V 13  15233.961534   2699.896367  27112.339003       .027860                    
P 14  -5743.067735  14106.722025  21818.986837    -15.087435                    
V 14 -27402.999770  -2101.154524  -5917.509152       .007327                    
P 15  -4162.433025  20261.709318 -16594.742381    603.931214                    
V 15 -10040.466383 -18488.962442 -20647.465151       .062061                    
P 16   2825.276436  18901.246811 -18312.528253     39.481652                    
V 16 -14251.810065  18714.100105  17134.376321       .023157                    
P 17   7124.410298 -14412.856886  21113.599372     87.365674                    
V 17  26782.927226   2107.093068  -7685.897290       .038518                    
P 18 -18124.505987  18210.181397  -5978.128753   -232.870731                    
V 18   2017.157803  -8119.462690 -30649.676859      -.017148                    
P 19  24457.947482   7644.691206  -6961.868001    -13.321757                    
V 19  -9219.378912   1712.662532 -30009.164241       .016965                    
P 20  18547.787439  -5426.668914  18113.483448    -27.820646                    
V 20 -11051.284853  20477.964109  17392.997601       .006665                    
P 21 -10484.413503  12847.475041 -20590.998510     24.774569                    
V 21 -12215.319254 -23481.931928  -8932.914487       .028010                    
P 22 -10694.621987  23299.650078   7083.796207     90.117550                    
V 22  -7435.494054   5483.862407 -29910.277053       .040766                    
P 23  26625.574329    732.925139   -857.158448    142.854133                    
V 23    848.306261   2487.369284  31794.595455      -.009763                    
P 24   6184.661076 -18036.353295  18618.575821      1.884295                    
V 24  10941.484167  20576.494254  16759.167971       .029230                    
P 25   9143.565458  23923.526141   7175.708779     12.450040                    
V 25  -7083.917235  -5721.745300  29901.052482      -.031544                    
P 26 -22990.470475  -8974.253024 -10959.814635    -99.313971                    
V 26  13141.912893    -95.443375 -27922.489042      -.109330                    
P 27   9558.890623 -12496.326823 -20748.333015     46.310116                    
V 27  14925.143771  23495.608477  -7399.026607       .017218                    
P 28  12424.421763 -23014.875494   3660.688270     28.534925                    
V 28   4984.523946  -1879.845104 -31505.860667      -.007172                    
P 29 -20640.559687  -9814.724487 -13527.027750    594.650722                    
V 29  17467.313759   -720.329645 -25414.862465       .074918                    
P 30 -18617.149544  14552.075868  11734.351798    196.098240                    
V 30   5369.955579 -14741.783372  26299.380177       .391209                    
EOF
